49P/Arend-Rigaux,e,19.0597,118.7905,332.9290,3.569048,0.1461758,0.59892510,42.5965,01/27.0/2026,2000,g 11.3,4.4
# From MPEC 2025-W75
50P/Arend,e,19.1006,355.1445,49.3024,4.085704,0.1193448,0.52954905,74.5289,01/27.0/2026,2000,g  9.5,6.0
# From MPEC 2025-W75
51P/Harrington,e,5.4263,83.6580,269.2157,3.705386,0.1381828,0.54266680,167.8575,01/27.0/2026,2000,g 10.0,8.0
# From NK 3014
51P-A/Harrington,e,5.4261,269.2267,83.6269,3.706616,0.1381140,0.54286241,167.4173,01/27.0/2026,2000,g 10.0,8.0
# From MPEC 2025-W75
52P/Harrington-Abell,e,10.2408,336.7418,139.6441,3.861730,0.1298767,0.54120786,204.3218,01/27.0/2026,2000,g 13.5,6.0
# From MPEC 2025-W75
53P/VanBiesbroeck,e,6.6047,148.8489,134.3262,5.440549,0.0776676,0.55011053,277.4148,01/27.0/2026,2000,g  7.7,4.8
# From MPEC 2025-W75
54P/deVico-Swift-NEAT,e,6.0731,358.4234,2.4028,3.795457,0.1332932,0.42874119,67.8660,01/27.0/2026,2000,g 10.0,6.0
# From MPEC 2025-W75
55P/Tempel-Tuttle,e,162.4935,235.4099,172.5337,10.33389,0.0296694,0.90532958,302.3377,01/27.0/2026,2000,g 10.0,10.0
# From MPEC 2025-W75
56P/Slaughter-Burnham,e,8.1552,345.8706,44.2370,5.062783,0.0865207,0.50816656,300.1582,01/27.0/2026,2000,g  8.5,6.0
# From MPEC 2025-W75
57P/duToit-Neujmin-Delporte,e,2.8553,188.6965,115.1051,3.439717,0.1544970,0.50198253,241.5078,01/27.0/2026,2000,g 12.5,6.0
# From MPEC 2025-W75
58P/Jackson-Neujmin,e,13.0836,159.0270,200.5784,4.091846,0.1190763,0.66138094,246.7334,01/27.0/2026,2000,g 15.5,6.0
# From MPEC 2025-W75
59P/Kearns-Kwee,e,9.3574,312.7263,127.6994,4.478048,0.1040090,0.47701116,279.0165,01/27.0/2026,2000,g  7.0,6.0
# From MPEC 2025-W75
60P/Tsuchinshan,e,3.5798,267.3955,216.9149,3.529255,0.1486550,0.53367950,28.3031,01/27.0/2026,2000,g 11.5,6.0
# From MPEC 2025-W75
61P/Shajn-Schaldach,e,5.9956,162.9552,221.7183,3.691295,0.1389748,0.42277143,165.6550,01/27.0/2026,2000,g  6.0,10.0
# From MPEC 2025-W75
62P/Tsuchinshan,e,4.7361,68.6612,47.3494,3.371572,0.1592045,0.62473332,121.5846,01/27.0/2026,2000,g  8.0,10.0
# From MPEC 2026-A90
63P/Wild,e,19.6167,357.7501,168.7352,5.657648,0.0732403,0.65094623,348.2709,01/27.0/2026,2000,g 10.5,6.0
# From MPEC 2025-W75
64P/Swift-Gehrels,e,8.9548,299.7621,97.3411,4.452329,0.1049115,0.68822917,276.6715,01/27.0/2026,2000,g  9.5,12.0
# From MPEC 2025-X35
65P/Gunn,e,9.1749,61.9705,213.6436,3.891516,0.1283884,0.24808181,28.8471,01/27.0/2026,2000,g  5.0,6.0
# From MPEC 2025-W75
66P/duToit,e,18.6466,21.8576,257.3404,6.070505,0.0658972,0.78492894,185.7187,01/27.0/2026,2000,g 12.0,3.6
# From MPEC 2025-W75
67P/Churyumov-Gerasimenko,e,3.8671,36.3013,22.2292,3.458775,0.1532218,0.64967793,236.9052,01/27.0/2026,2000,g 11.0,4.0
# From MPEC 2025-W75
68P/Klemola,e,11.0967,175.0975,153.1916,4.964306,0.0891079,0.63561165,202.7430,01/27.0/2026,2000,g 10.0,4.0
# From MPEC 2025-W75
69P/Taylor,e,22.0612,104.8067,343.5382,3.879136,0.1290035,0.41466989,322.6612,01/27.0/2026,2000,g  9.5,12.0
# From MPEC 2025-W75
70P/Kojima,e,6.6037,119.2362,1.8128,3.674908,0.1399053,0.45493966,216.0483,01/27.0/2026,2000,g 11.0,6.0
# From MPEC 2025-W75
71P/Clark,e,9.1985,58.9210,210.8078,3.185248,0.1733761,0.48235046,191.6697,01/27.0/2026,2000,g  9.8,6.0
# From MPEC 2025-W75
72P/Denning-Fujikawa,e,10.9399,26.7329,346.7357,4.307641,0.1102414,0.81815294,105.4619,01/27.0/2026,2000,g 17.5,10.0
# From MPEC 2025-W75
73P/Schwassmann-Wachmann,e,6.3102,53.3917,213.6948,3.053984,0.1846732,0.70463750,232.0349,01/27.0/2026,2000,g 11.5,6.0
# From MPC106348
73P-BT/Schwassmann-Wachmann,e,10.6068,189.9158,78.2809,3.080084,0.1823309,0.69289812,227.8715,01/27.0/2026,2000,g 11.5,6.0
# From MPEC 2026-A24
74P/Smirnova-Chernykh,e,5.9415,50.8685,58.2733,5.144511,0.0844672,0.05974165,356.2424,01/27.0/2026,2000,g  5.0,6.0
# From MPEC 2025-WD0
76P/West-Kohoutek-Ikemura,e,30.4983,84.1088,0.0244,3.467003,0.1526767,0.53943159,348.2983,01/27.0/2026,2000,g  8.0,12.0
# From MPEC 2025-W75
77P/Longmore,e,24.3311,14.7475,196.5912,3.619488,0.1431309,0.35204736,147.4313,01/27.0/2026,2000,g  7.0,8.0
# From MPEC 2026-A24
78P/Gehrels,e,6.2574,210.4954,192.7865,3.732485,0.1366806,0.46294858,339.6236,01/27.0/2026,2000,g  5.5,8.0
# From MPEC 2025-W75
79P/duToit-Hartley,e,3.1489,280.4858,281.7638,2.942036,0.1953135,0.61956190,165.9313,01/27.0/2026,2000,g 16.0,4.0
# From MPEC 2025-W75
80P/Peters-Hartley,e,29.9288,259.7696,339.2499,4.020891,0.1222421,0.59770685,140.1025,01/27.0/2026,2000,g  9.0,8.0
# From MPEC 2025-W75
81P/Wild,e,3.2388,136.1060,41.5447,3.450987,0.1537408,0.53790592,174.9336,01/27.0/2026,2000,g  7.0,6.0
# From MPEC 2025-W75
82P/Gehrels,e,1.1294,239.2903,226.3436,4.133614,0.1172760,0.12325162,325.7021,01/27.0/2026,2000,g  5.0,8.0
# From MPEC 2025-W75
84P/Giclas,e,7.5529,108.0797,281.7427,3.550021,0.1473526,0.51558261,303.7570,01/27.0/2026,2000,g  9.5,8.0
# From MPEC 2025-W75
86P/Wild,e,15.4656,72.0803,180.9727,3.654137,0.1411000,0.36007323,206.0455,01/27.0/2026,2000,g 11.0,6.0
# From MPEC 2025-WD0
87P/Bus,e,3.8601,175.6962,63.8212,4.460725,0.1046155,0.19667624,229.0595,01/27.0/2026,2000,g  7.2,10.0
# From MPEC 2025-W75
88P/Howell,e,4.3819,56.6694,235.8679,3.109080,0.1797862,0.56328055,350.8716,01/27.0/2026,2000,g 11.0,6.0
# From MPEC 2025-W75
89P/Russell,e,12.0673,41.3404,250.4726,3.751746,0.1356294,0.40712643,91.0790,01/27.0/2026,2000,g 11.5,6.0
# From MPEC 2025-W75
90P/Gehrels,e,9.6337,13.1489,29.2329,6.055536,0.0661417,0.51023752,207.6514,01/27.0/2026,2000,g  8.5,6.0
# From MPEC 2025-WD0
91P/Russell,e,15.9637,241.9853,356.8812,4.161146,0.1161140,0.25168358,243.5756,01/27.0/2026,2000,g  7.5,6.0
# From MPEC 2025-W75
92P/Sanguin,e,19.4778,181.3348,163.7820,5.345778,0.0797421,0.65992190,317.3799,01/27.0/2026,2000,g 12.0,6.0
# From MPEC 2026-A24
93P/Lovas,e,12.2106,339.5494,75.0418,4.372367,0.1078026,0.61384544,349.6568,01/27.0/2026,2000,g  9.5,6.0
# From MPEC 2025-W75
94P/Russell,e,6.1871,70.8387,92.3833,3.509636,0.1499032,0.36620901,147.1383,01/27.0/2026,2000,g  9.0,6.0
# From MPEC 2025-W75
96P/Machholz,e,57.5805,93.9607,14.7408,3.031006,0.1867772,0.96172931,203.8565,01/27.0/2026,2000,g 13.0,4.8
# From MPC106348
96P-B/Machholz,e,57.5089,14.5069,94.0609,3.029977,0.1868723,0.96175030,204.0148,01/27.0/2026,2000,g 13.0,4.8
# From MPEC 2025-W75
97P/Metcalf-Brewington,e,17.9323,184.0645,230.2351,4.771291,0.0945693,0.45963966,136.3012,01/27.0/2026,2000,g  5.5,6.0
# From MPEC 2025-W75
98P/Takamizawa,e,10.8750,114.4591,158.2852,3.748372,0.1358126,0.58131482,248.1354,01/27.0/2026,2000,g  9.0,8.0
# From MPEC 2025-W75
99P/Kowal,e,4.3394,28.0488,174.5080,6.092911,0.0655340,0.22898172,91.0259,01/27.0/2026,2000,g  4.5,6.0
# From MPEC 2025-W75
100P/Hartley,e,25.5683,37.6859,181.8947,3.430211,0.1551397,0.41140314,196.4384,01/27.0/2026,2000,g  9.0,8.0
# From MPEC 2025-W75
101P/Chernykh,e,5.0485,116.1128,278.0095,5.819186,0.0702119,0.59518134,154.9332,01/27.0/2026,2000,g 10.0,4.8
# From MPEC 2025-W75
102P/Shoemaker,e,25.8451,339.3462,20.7017,3.820975,0.1319601,0.45576104,241.7922,01/27.0/2026,2000,g  6.5,8.0
# From MPEC 2025-W75
103P/Hartley,e,13.6039,219.7619,181.3343,3.476187,0.1520721,0.69329600,127.3918,01/27.0/2026,2000,g  8.5,8.0
# From MPEC 2025-W75
104P/Kowal,e,5.6999,207.1630,227.3321,3.208502,0.1714946,0.66583057,252.9985,01/27.0/2026,2000,g 16.0,4.0
# From MPEC 2025-W75
105P/SingerBrewster,e,9.1681,192.3868,46.3128,3.472606,0.1523073,0.40917385,56.2458,01/27.0/2026,2000,g 11.5,6.0
# From MPEC 2025-W75
106P/Schuster,e,19.5275,48.8654,353.8009,3.768814,0.1347091,0.59328506,218.5039,01/27.0/2026,2000,g 14.0,4.8
# From MPEC 2025-W75
108P/Ciffreo,e,11.4308,50.2732,354.5647,3.744387,0.1360295,0.55543283,217.6085,01/27.0/2026,2000,g  8.0,12.0
# From MPEC 2025-W75
109P/Swift-Tuttle,e,112.9253,139.8398,153.2444,26.19035,0.0073535,0.96316311,88.9073,01/27.0/2026,2000,g  4.5,6.0
# From MPEC 2025-W75
110P/Hartley,e,11.7118,287.4818,167.5918,3.603309,0.1440960,0.31924550,224.7700,01/27.0/2026,2000,g  1.0,12.0
# From MPEC 2025-WD0
111P/Helin-Roman-Crockett,e,4.2262,89.7329,1.5947,4.153108,0.1164513,0.10713238,195.7912,01/27.0/2026,2000,g  5.0,8.0
# From MPEC 2025-WD0
112P/Urata-Niijima,e,24.2033,31.7984,21.5759,3.521679,0.1491349,0.59076467,324.5286,01/27.0/2026,2000,g 14.0,6.0
# From MPEC 2025-W75
113P/Spitaler,e,5.2879,306.6114,115.7653,3.696765,0.1386664,0.41943579,185.1564,01/27.0/2026,2000,g 13.5,4.0
# From MPEC 2025-W75
114P/Wiseman-Skiff,e,18.3034,271.0235,172.8380,3.538845,0.1480512,0.55611947,325.8025,01/27.0/2026,2000,g 11.5,6.0
# From MPEC 2025-W75
115P/Maury,e,11.6961,175.9063,120.9538,4.269602,0.1117179,0.51874645,224.6274,01/27.0/2026,2000,g 10.5,6.0
# From MPEC 2025-W75
116P/Wild,e,3.6051,20.9584,173.1495,3.485157,0.1514853,0.37102056,195.4080,01/27.0/2026,2000,g  2.5,10.0
# From MPEC 2026-A24
117P/Helin-Roman-Alu,e,8.6545,58.7625,224.9854,4.126420,0.1175828,0.25007099,152.5419,01/27.0/2026,2000,g  2.5,8.0
# From MPEC 2025-W75
118P/Shoemaker-Levy,e,10.0931,142.0441,314.9799,3.349113,0.1608086,0.45377660,186.3845,01/27.0/2026,2000,g 12.0,4.0
# From MPEC 2025-W75
119P/Parker-Hartley,e,7.3929,104.5408,322.3025,3.810467,0.1325064,0.38788945,167.4418,01/27.0/2026,2000,g  3.5,8.0
# From MPEC 2025-W75
120P/Mueller,e,8.4787,358.6419,36.8482,3.970778,0.1245635,0.37384290,214.9786,01/27.0/2026,2000,g 12.0,4.0
# From MPEC 2025-W75
121P/Shoemaker-Holt,e,20.1620,94.1051,12.0794,4.591025,0.1001935,0.18666595,94.2445,01/27.0/2026,2000,g  6.5,8.0
# From MPEC 2025-W75
122P/deVico,e,85.9699,79.7304,13.0112,17.63583,0.0133079,0.96265519,147.2984,01/27.0/2026,2000,g  7.5,5.2
# From MPEC 2026-A90
123P/West-Hartley,e,15.2850,45.8773,103.9100,3.886718,0.1286262,0.44470323,329.3824,01/27.0/2026,2000,g  4.0,10.0
# From MPEC 2026-A90
124P/Mrkos,e,31.4033,359.9513,185.1133,3.377849,0.1587610,0.48637026,336.5687,01/27.0/2026,2000,g 13.5,2.8
# From MPEC 2025-W75
125P/Spacewatch,e,9.9861,153.1522,87.0830,3.127177,0.1782278,0.51200934,123.1273,01/27.0/2026,2000,g 13.0,6.0
# From MPEC 2025-W75
126P/IRAS,e,45.8729,357.8556,356.5446,5.625007,0.0738787,0.69584147,69.2418,01/27.0/2026,2000,g  6.0,8.0
# From MPEC 2025-W75
